{"type":"Feature","properties":{"name":"Žižkov","ref":"727415","source":"OSM cadastral boundary relation 428824"},"geometry":{"type":"MultiPolygon","coordinates":[[[[14.5033129,50.0896617],[14.5032752,50.0895964],[14.5029831,50.0895873],[14.5024232,50.0895324],[14.5020865,50.0894835],[14.5020031,50.0894714],[14.5019284,50.0894605],[14.5014555,50.0893673],[14.4999793,50.0890494],[14.499456,50.0889587],[14.498976,50.0888552],[14.49822,50.0886471],[14.4974329,50.0885021],[14.4972807,50.0885268],[14.4964212,50.0883592],[14.495361,50.0881116],[14.4945841,50.0879588],[14.4936067,50.0877782],[14.4925296,50.0875361],[14.4923824,50.0875173],[14.4921433,50.0874574],[14.4916662,50.087342],[14.4918087,50.0871063],[14.4918926,50.0870668],[14.4919211,50.0870695],[14.4919156,50.0869543],[14.4918603,50.0869597],[14.4918459,50.0869018],[14.4918111,50.0868643],[14.4917672,50.0868172],[14.4912668,50.0867013],[14.4900886,50.0864316],[14.4899923,50.0864096],[14.489344,50.0862452],[14.4887083,50.0860688],[14.4886202,50.0860436],[14.4882872,50.0859573],[14.4874936,50.0857807],[14.486965,50.0856708],[14.4862769,50.0855614],[14.4857317,50.0854948],[14.4852164,50.0854537],[14.484664,50.0854352],[14.4841019,50.0854345],[14.483657,50.085444],[14.4827134,50.0854124],[14.4827103,50.0854017],[14.4826458,50.0853961],[14.4824809,50.0854161],[14.4822392,50.085415],[14.4821087,50.0853937],[14.4820826,50.0853704],[14.4820702,50.0852953],[14.4820124,50.0851905],[14.481862,50.0850565],[14.4817537,50.0849735],[14.4808001,50.0848461],[14.4802835,50.0848004],[14.4783912,50.083573],[14.4784215,50.0835313],[14.4785144,50.0834254],[14.478734,50.0830757],[14.479209,50.0825093],[14.4799004,50.0826603],[14.480455,50.0818517],[14.4804929,50.0817958],[14.4808463,50.0814876],[14.4816516,50.0812374],[14.4821121,50.0810023],[14.4825576,50.0804639],[14.4818219,50.0804052],[14.479466,50.0799489],[14.477105,50.0795419],[14.477167,50.0794155],[14.4775463,50.0786148],[14.4774942,50.0783767],[14.4774425,50.0781407],[14.4774404,50.078133],[14.477422,50.0780639],[14.4774193,50.0779639],[14.4764151,50.0780623],[14.4757482,50.078127],[14.473158,50.0784415],[14.4726358,50.078429],[14.468057,50.0782119],[14.4673668,50.0781708],[14.4645805,50.0780098],[14.4619503,50.0778193],[14.4597515,50.0777456],[14.4570318,50.0776094],[14.4563764,50.0792103],[14.4550652,50.0790362],[14.4541317,50.0812481],[14.4529144,50.0807437],[14.4509555,50.079896],[14.4508832,50.079872],[14.4481881,50.0790003],[14.4480968,50.0791088],[14.44738,50.0799703],[14.4455712,50.0811852],[14.4448355,50.0812999],[14.4440997,50.0814845],[14.4433939,50.0815098],[14.4426424,50.0815742],[14.442036,50.0816512],[14.4411769,50.0817786],[14.4409315,50.0818016],[14.4403265,50.0818583],[14.4395319,50.0820168],[14.4398991,50.0832186],[14.4407864,50.0851581],[14.4404722,50.0853082],[14.4392539,50.0858902],[14.4380561,50.0863055],[14.4382108,50.0865991],[14.4383499,50.0866731],[14.4385411,50.0867707],[14.4388249,50.0868948],[14.4391016,50.0869883],[14.439253,50.0870327],[14.439501,50.0870947],[14.4396835,50.0871385],[14.4398197,50.0871641],[14.4401541,50.0872157],[14.4409096,50.0873216],[14.4417114,50.0874269],[14.4418424,50.0874411],[14.4429742,50.0873958],[14.4430954,50.0874273],[14.4432339,50.0874128],[14.4431623,50.0880113],[14.443111,50.0884401],[14.4432522,50.0888292],[14.4434275,50.0888509],[14.4447574,50.0891271],[14.4451547,50.0892119],[14.4455659,50.0892972],[14.4462766,50.0894452],[14.4463202,50.0894542],[14.447955,50.0897927],[14.4483911,50.0898832],[14.4484649,50.0897448],[14.4485485,50.0895897],[14.4493591,50.0896708],[14.4495569,50.0897048],[14.4495495,50.0897195],[14.4495754,50.0897244],[14.449584,50.0897101],[14.450086,50.0898133],[14.4501393,50.0898215],[14.4504375,50.0898831],[14.4504284,50.0899011],[14.4504703,50.0899103],[14.4504811,50.0898919],[14.4508804,50.0899731],[14.4508705,50.0899916],[14.4509124,50.0900015],[14.4509239,50.0899808],[14.4511363,50.0900186],[14.4511306,50.0900322],[14.4514641,50.0900988],[14.4514477,50.0901301],[14.4516218,50.09017],[14.4516382,50.0901405],[14.4519633,50.090206],[14.4519212,50.0902796],[14.4521077,50.0903208],[14.452303,50.0903616],[14.452492,50.0903781],[14.4525519,50.0902799],[14.4532087,50.0904085],[14.4532019,50.0904201],[14.4532444,50.0904284],[14.4532508,50.0904178],[14.4541822,50.0906055],[14.4553717,50.0908491],[14.4553239,50.0909574],[14.4554014,50.0909741],[14.4554199,50.0909367],[14.4559203,50.0910295],[14.4560693,50.0910744],[14.4561041,50.0910906],[14.4563447,50.0911451],[14.4563942,50.0911548],[14.456456,50.0911461],[14.4565773,50.0911713],[14.4565285,50.0912547],[14.4567681,50.0913047],[14.4568967,50.0913189],[14.4569008,50.0913109],[14.4569043,50.0913068],[14.4569079,50.0913042],[14.4569126,50.0913017],[14.4569167,50.0913005],[14.4569224,50.091299],[14.4569283,50.0912982],[14.4569334,50.091298],[14.4569402,50.0912988],[14.4569461,50.0912997],[14.4569512,50.0913014],[14.4569571,50.0913036],[14.456962,50.0913075],[14.4569657,50.0913125],[14.4569673,50.0913162],[14.4569677,50.0913196],[14.456967,50.0913233],[14.4569637,50.0913309],[14.4571322,50.0913677],[14.4574205,50.0914315],[14.4579217,50.0915303],[14.4580057,50.0915469],[14.4580254,50.0915075],[14.4584756,50.0915963],[14.4590522,50.0916962],[14.4594984,50.0917754],[14.460768,50.0919476],[14.4608195,50.091895],[14.461381,50.0920288],[14.4618292,50.0920799],[14.4634886,50.0923775],[14.4638163,50.0923718],[14.4646854,50.0925756],[14.4652226,50.0926317],[14.4656092,50.0926666],[14.4658115,50.0926841],[14.4662093,50.092789],[14.4669173,50.0929789],[14.4669601,50.0929915],[14.4677422,50.0933457],[14.4678439,50.0932462],[14.4680304,50.0932972],[14.4684765,50.0937379],[14.4687892,50.0938975],[14.4688861,50.0939495],[14.4692201,50.0942507],[14.4701674,50.0949191],[14.4702258,50.0949429],[14.4703923,50.0948653],[14.4707695,50.0951969],[14.4710285,50.0953164],[14.4716329,50.0958297],[14.4717744,50.095982],[14.4719666,50.0961133],[14.4722057,50.096366],[14.4728184,50.0968793],[14.4733245,50.097367],[14.4735618,50.0975512],[14.4738754,50.097849],[14.4742739,50.09765],[14.4744218,50.0975579],[14.4751871,50.0960705],[14.4752461,50.0960941],[14.4756464,50.0963868],[14.4759329,50.0965825],[14.4762203,50.0964293],[14.4768845,50.0968569],[14.4774253,50.0971996],[14.4774725,50.097164],[14.4775078,50.0971852],[14.4781405,50.0975652],[14.4784842,50.097707],[14.4786538,50.0973752],[14.4787901,50.0971263],[14.4788328,50.0970498],[14.4791593,50.0965712],[14.4794732,50.0961949],[14.4797853,50.0957184],[14.4799592,50.0954957],[14.4803903,50.0950311],[14.4804845,50.0949476],[14.4807155,50.0948358],[14.481542,50.0951176],[14.4816584,50.0950972],[14.4821748,50.0944492],[14.483701,50.0947253],[14.4847865,50.0948651],[14.4847991,50.0948667],[14.4856555,50.0949411],[14.4857668,50.0949468],[14.4864552,50.094982],[14.4867219,50.0949957],[14.4882227,50.0950078],[14.4914525,50.0950753],[14.4938,50.0953191],[14.4959585,50.0956947],[14.4962667,50.0944501],[14.4968558,50.09346],[14.4982879,50.0917745],[14.5002306,50.0910978],[14.5009811,50.0908799],[14.5023255,50.0906354],[14.5014211,50.0903458],[14.5014435,50.0903233],[14.5015277,50.090146],[14.5016348,50.0900336],[14.5016338,50.0900057],[14.5020294,50.0899032],[14.5024553,50.0897991],[14.503318,50.0896899],[14.5033129,50.0896617]]]]}}