{"type":"Feature","properties":{"name":"Žižkov + Holešovice + Praha 1","areas":[{"name":"Žižkov","relationId":428824,"kind":"cadastral"},{"name":"Holešovice","relationId":429461,"kind":"cadastral"},{"name":"Praha 1","relationId":15107966,"kind":"administrative"}],"source":"OSM boundary relations 428824, 429461, 15107966"},"geometry":{"type":"MultiPolygon","coordinates":[[[[14.5033129,50.0896617],[14.5032752,50.0895964],[14.5029831,50.0895873],[14.5024232,50.0895324],[14.5020865,50.0894835],[14.5020031,50.0894714],[14.5019284,50.0894605],[14.5014555,50.0893673],[14.4999793,50.0890494],[14.499456,50.0889587],[14.498976,50.0888552],[14.49822,50.0886471],[14.4974329,50.0885021],[14.4972807,50.0885268],[14.4964212,50.0883592],[14.495361,50.0881116],[14.4945841,50.0879588],[14.4936067,50.0877782],[14.4925296,50.0875361],[14.4923824,50.0875173],[14.4921433,50.0874574],[14.4916662,50.087342],[14.4918087,50.0871063],[14.4918926,50.0870668],[14.4919211,50.0870695],[14.4919156,50.0869543],[14.4918603,50.0869597],[14.4918459,50.0869018],[14.4918111,50.0868643],[14.4917672,50.0868172],[14.4912668,50.0867013],[14.4900886,50.0864316],[14.4899923,50.0864096],[14.489344,50.0862452],[14.4887083,50.0860688],[14.4886202,50.0860436],[14.4882872,50.0859573],[14.4874936,50.0857807],[14.486965,50.0856708],[14.4862769,50.0855614],[14.4857317,50.0854948],[14.4852164,50.0854537],[14.484664,50.0854352],[14.4841019,50.0854345],[14.483657,50.085444],[14.4827134,50.0854124],[14.4827103,50.0854017],[14.4826458,50.0853961],[14.4824809,50.0854161],[14.4822392,50.085415],[14.4821087,50.0853937],[14.4820826,50.0853704],[14.4820702,50.0852953],[14.4820124,50.0851905],[14.481862,50.0850565],[14.4817537,50.0849735],[14.4808001,50.0848461],[14.4802835,50.0848004],[14.4783912,50.083573],[14.4784215,50.0835313],[14.4785144,50.0834254],[14.478734,50.0830757],[14.479209,50.0825093],[14.4799004,50.0826603],[14.480455,50.0818517],[14.4804929,50.0817958],[14.4808463,50.0814876],[14.4816516,50.0812374],[14.4821121,50.0810023],[14.4825576,50.0804639],[14.4818219,50.0804052],[14.479466,50.0799489],[14.477105,50.0795419],[14.477167,50.0794155],[14.4775463,50.0786148],[14.4774942,50.0783767],[14.4774425,50.0781407],[14.4774404,50.078133],[14.477422,50.0780639],[14.4774193,50.0779639],[14.4764151,50.0780623],[14.4757482,50.078127],[14.473158,50.0784415],[14.4726358,50.078429],[14.468057,50.0782119],[14.4673668,50.0781708],[14.4645805,50.0780098],[14.4619503,50.0778193],[14.4597515,50.0777456],[14.4570318,50.0776094],[14.4563764,50.0792103],[14.4550652,50.0790362],[14.4541317,50.0812481],[14.4529144,50.0807437],[14.4509555,50.079896],[14.4508832,50.079872],[14.4481881,50.0790003],[14.4480968,50.0791088],[14.44738,50.0799703],[14.4455712,50.0811852],[14.4448355,50.0812999],[14.4440997,50.0814845],[14.4433939,50.0815098],[14.4426424,50.0815742],[14.442036,50.0816512],[14.4411769,50.0817786],[14.4409315,50.0818016],[14.4403265,50.0818583],[14.4395319,50.0820168],[14.4398991,50.0832186],[14.4407864,50.0851581],[14.4404722,50.0853082],[14.4392539,50.0858902],[14.4380561,50.0863055],[14.4382108,50.0865991],[14.4383499,50.0866731],[14.4385411,50.0867707],[14.4388249,50.0868948],[14.4391016,50.0869883],[14.439253,50.0870327],[14.439501,50.0870947],[14.4396835,50.0871385],[14.4398197,50.0871641],[14.4401541,50.0872157],[14.4409096,50.0873216],[14.4417114,50.0874269],[14.4418424,50.0874411],[14.4429742,50.0873958],[14.4430954,50.0874273],[14.4432339,50.0874128],[14.4431623,50.0880113],[14.443111,50.0884401],[14.4432522,50.0888292],[14.4434275,50.0888509],[14.4447574,50.0891271],[14.4451547,50.0892119],[14.4455659,50.0892972],[14.4462766,50.0894452],[14.4463202,50.0894542],[14.447955,50.0897927],[14.4483911,50.0898832],[14.4484649,50.0897448],[14.4485485,50.0895897],[14.4493591,50.0896708],[14.4495569,50.0897048],[14.4495495,50.0897195],[14.4495754,50.0897244],[14.449584,50.0897101],[14.450086,50.0898133],[14.4501393,50.0898215],[14.4504375,50.0898831],[14.4504284,50.0899011],[14.4504703,50.0899103],[14.4504811,50.0898919],[14.4508804,50.0899731],[14.4508705,50.0899916],[14.4509124,50.0900015],[14.4509239,50.0899808],[14.4511363,50.0900186],[14.4511306,50.0900322],[14.4514641,50.0900988],[14.4514477,50.0901301],[14.4516218,50.09017],[14.4516382,50.0901405],[14.4519633,50.090206],[14.4519212,50.0902796],[14.4521077,50.0903208],[14.452303,50.0903616],[14.452492,50.0903781],[14.4525519,50.0902799],[14.4532087,50.0904085],[14.4532019,50.0904201],[14.4532444,50.0904284],[14.4532508,50.0904178],[14.4541822,50.0906055],[14.4553717,50.0908491],[14.4553239,50.0909574],[14.4554014,50.0909741],[14.4554199,50.0909367],[14.4559203,50.0910295],[14.4560693,50.0910744],[14.4561041,50.0910906],[14.4563447,50.0911451],[14.4563942,50.0911548],[14.456456,50.0911461],[14.4565773,50.0911713],[14.4565285,50.0912547],[14.4567681,50.0913047],[14.4568967,50.0913189],[14.4569008,50.0913109],[14.4569043,50.0913068],[14.4569094,50.0913031],[14.4569167,50.0913003],[14.4569253,50.0912983],[14.4569352,50.0912978],[14.4569429,50.0912989],[14.4569515,50.0913009],[14.4569571,50.0913036],[14.456962,50.0913075],[14.4569657,50.0913125],[14.4569673,50.0913162],[14.4569677,50.0913196],[14.456967,50.0913233],[14.4569637,50.0913309],[14.4571322,50.0913677],[14.4574205,50.0914315],[14.4579217,50.0915303],[14.4580057,50.0915469],[14.4580254,50.0915075],[14.4584756,50.0915963],[14.4590522,50.0916962],[14.4594984,50.0917754],[14.460768,50.0919476],[14.4608195,50.091895],[14.461381,50.0920288],[14.4618292,50.0920799],[14.4634886,50.0923775],[14.4638163,50.0923718],[14.4646854,50.0925756],[14.4652226,50.0926317],[14.4656092,50.0926666],[14.4658115,50.0926841],[14.4662093,50.092789],[14.4669173,50.0929789],[14.4669601,50.0929915],[14.4677422,50.0933457],[14.4678439,50.0932462],[14.4680304,50.0932972],[14.4684765,50.0937379],[14.4687892,50.0938975],[14.4688861,50.0939495],[14.4692201,50.0942507],[14.4701674,50.0949191],[14.4702258,50.0949429],[14.4703923,50.0948653],[14.4707695,50.0951969],[14.4710285,50.0953164],[14.4716329,50.0958297],[14.4717744,50.095982],[14.4719666,50.0961133],[14.4722057,50.096366],[14.4728184,50.0968793],[14.4733245,50.097367],[14.4735618,50.0975512],[14.4738754,50.097849],[14.4742739,50.09765],[14.4744218,50.0975579],[14.4751871,50.0960705],[14.4752461,50.0960941],[14.4756464,50.0963868],[14.4759329,50.0965825],[14.4762203,50.0964293],[14.4768845,50.0968569],[14.4774253,50.0971996],[14.4774725,50.097164],[14.4775078,50.0971852],[14.4781405,50.0975652],[14.4784842,50.097707],[14.4786538,50.0973752],[14.4787901,50.0971263],[14.4788328,50.0970498],[14.4791593,50.0965712],[14.4794732,50.0961949],[14.4797853,50.0957184],[14.4799592,50.0954957],[14.4803903,50.0950311],[14.4804845,50.0949476],[14.4807155,50.0948358],[14.481542,50.0951176],[14.4816584,50.0950972],[14.4821748,50.0944492],[14.483701,50.0947253],[14.4847865,50.0948651],[14.4847991,50.0948667],[14.4856555,50.0949411],[14.4857668,50.0949468],[14.4864552,50.094982],[14.4867219,50.0949957],[14.4882227,50.0950078],[14.4914525,50.0950753],[14.4938,50.0953191],[14.4959585,50.0956947],[14.4962667,50.0944501],[14.4968558,50.09346],[14.4982879,50.0917745],[14.5002306,50.0910978],[14.5009811,50.0908799],[14.5023255,50.0906354],[14.5014211,50.0903458],[14.5014435,50.0903233],[14.5015277,50.090146],[14.5016348,50.0900336],[14.5016338,50.0900057],[14.5020294,50.0899032],[14.5024553,50.0897991],[14.503318,50.0896899],[14.5033129,50.0896617]]],[[[14.4305112,50.1116626],[14.4329949,50.1118111],[14.4353033,50.1121501],[14.438096,50.1126509],[14.4398902,50.1128465],[14.4410968,50.1131176],[14.4435104,50.1133423],[14.4453204,50.1134175],[14.4454912,50.1134251],[14.4476885,50.1132891],[14.4492835,50.1131281],[14.4512283,50.1130798],[14.4531066,50.1128807],[14.4542929,50.1124752],[14.4562586,50.1115687],[14.4578245,50.1104723],[14.4589812,50.1093267],[14.460148,50.1075956],[14.4605242,50.1061426],[14.4605091,50.1047286],[14.459882,50.103132],[14.4588604,50.1017489],[14.4574881,50.1006712],[14.4552428,50.0994813],[14.452753,50.0985705],[14.4506181,50.0979507],[14.4488189,50.0967513],[14.4467274,50.0961556],[14.4445214,50.0952805],[14.4415218,50.0947003],[14.4393912,50.0945356],[14.4366128,50.0942956],[14.4355558,50.0942138],[14.4338963,50.0942722],[14.4331562,50.0941806],[14.4318761,50.0940221],[14.4292718,50.0945016],[14.4270602,50.0943168],[14.4267693,50.0942925],[14.4246249,50.0941518],[14.4245237,50.0941448],[14.4223956,50.0939974],[14.4206,50.0938016],[14.41864,50.0934576],[14.4173332,50.093119],[14.4171532,50.0930718],[14.4171151,50.0930619],[14.4170466,50.0930445],[14.4167959,50.0929798],[14.416501,50.0928277],[14.4148902,50.091997],[14.4139752,50.0925441],[14.4135103,50.0931672],[14.4123081,50.0927295],[14.4114298,50.0922183],[14.411479,50.0923554],[14.4117197,50.0926291],[14.4118358,50.0927662],[14.4119616,50.0929491],[14.4120039,50.0930254],[14.4120591,50.0931097],[14.4121417,50.0932175],[14.4119522,50.0933502],[14.4113879,50.0937384],[14.4112984,50.0938],[14.4112468,50.0937883],[14.4111459,50.0937654],[14.4109265,50.0937192],[14.4108995,50.0937663],[14.4108119,50.0939283],[14.4108034,50.093944],[14.4105498,50.0944129],[14.4109415,50.0944918],[14.4109505,50.0945633],[14.4109647,50.0946765],[14.4111073,50.0954232],[14.4096368,50.0954127],[14.4095048,50.0952415],[14.4094167,50.0951273],[14.4090727,50.0951548],[14.4076765,50.0974921],[14.4075807,50.097657],[14.4096649,50.0979602],[14.4115177,50.0982428],[14.4205947,50.0996242],[14.422444,50.0999555],[14.4231857,50.1002344],[14.4239006,50.1005031],[14.4239822,50.1005338],[14.4268516,50.1010101],[14.4263924,50.101958],[14.4259787,50.1030315],[14.4272161,50.103188],[14.4277855,50.1032156],[14.4279007,50.1032865],[14.428134,50.1033118],[14.4285845,50.1033162],[14.4292815,50.1033984],[14.4297909,50.1034584],[14.4301544,50.1035232],[14.4302363,50.10354],[14.4304637,50.1036078],[14.4308763,50.1037574],[14.4312058,50.103937],[14.4313936,50.1040448],[14.4313522,50.1040767],[14.433751,50.1055412],[14.4347367,50.1062047],[14.4352988,50.106612],[14.4357823,50.1068735],[14.4356915,50.1069755],[14.4356423,50.1070217],[14.435591,50.1070699],[14.4349984,50.1075393],[14.4349734,50.1077276],[14.4348597,50.1077622],[14.4346851,50.1078665],[14.4345028,50.1079475],[14.433911,50.108246],[14.4330361,50.1086163],[14.4327672,50.1087218],[14.4323575,50.1088767],[14.4321824,50.1089429],[14.4313559,50.1092028],[14.430294,50.1094918],[14.429482,50.1096856],[14.4286741,50.1098393],[14.4283314,50.110278],[14.4283771,50.1103681],[14.4280326,50.1104406],[14.4281492,50.1108187],[14.4281496,50.1110299],[14.4303422,50.1110071],[14.4305112,50.1116626]]],[[[14.4267693,50.0942925],[14.4270602,50.0943168],[14.4292718,50.0945016],[14.4318761,50.0940221],[14.4331562,50.0941806],[14.4338963,50.0942722],[14.4355558,50.0942138],[14.4366128,50.0942956],[14.4365461,50.0940204],[14.4365593,50.0939504],[14.4365623,50.0939343],[14.4368651,50.0923246],[14.4363956,50.0913506],[14.4368689,50.0906324],[14.4369739,50.090447],[14.4369954,50.0904177],[14.4370048,50.0904048],[14.4370477,50.0903437],[14.4370604,50.0903269],[14.4371302,50.0902284],[14.4372656,50.0900374],[14.4373608,50.0899019],[14.4373709,50.0898856],[14.437338,50.089368],[14.4375687,50.0894175],[14.4375888,50.0894218],[14.4379355,50.0894962],[14.4379368,50.0892768],[14.4379368,50.0890541],[14.4379335,50.0888147],[14.4379409,50.0885381],[14.4379718,50.0882744],[14.4379761,50.0881102],[14.4378456,50.0880007],[14.4378427,50.0879956],[14.4378242,50.0878437],[14.4378121,50.0876772],[14.4377638,50.0873588],[14.4376793,50.0870284],[14.4375747,50.0867453],[14.4374571,50.086504],[14.4372181,50.0865837],[14.4371944,50.0865916],[14.4366252,50.0859115],[14.4364691,50.085721],[14.4356846,50.0842231],[14.4354119,50.0838634],[14.434523,50.082691],[14.4343227,50.0824208],[14.4340722,50.0821581],[14.4338826,50.0819556],[14.4338342,50.0819009],[14.4332734,50.0813047],[14.4327737,50.0810105],[14.4333092,50.0806195],[14.4333347,50.080606],[14.4333643,50.0806028],[14.433476,50.0806233],[14.4335059,50.0806292],[14.4335417,50.0806174],[14.4336332,50.0805831],[14.4335365,50.0803838],[14.4327608,50.0791181],[14.4315535,50.0784396],[14.4312876,50.0782791],[14.4307109,50.0778486],[14.4305213,50.0776155],[14.4304442,50.0770881],[14.4292243,50.0771477],[14.4266356,50.0772398],[14.4263334,50.0772306],[14.4238916,50.0773609],[14.422556,50.0774381],[14.4212669,50.0774985],[14.4214586,50.0781702],[14.4217129,50.0786375],[14.4220099,50.079085],[14.4209886,50.0791285],[14.4196075,50.0791607],[14.4195288,50.0783738],[14.4179531,50.0778686],[14.4176929,50.0778083],[14.4163879,50.0775406],[14.4151273,50.0774373],[14.4143894,50.0773903],[14.414099,50.0763203],[14.4138714,50.0758007],[14.4115121,50.0755917],[14.4112158,50.0772082],[14.4108898,50.0786748],[14.4098221,50.0790661],[14.4094974,50.0798386],[14.4091342,50.0807656],[14.4091318,50.0807663],[14.4091217,50.0811772],[14.4091075,50.0812779],[14.4079297,50.0812489],[14.4069772,50.0812308],[14.4065327,50.081218],[14.4061891,50.0812207],[14.4045309,50.0811766],[14.4045664,50.0808064],[14.4044076,50.0808011],[14.4042282,50.080797],[14.4039774,50.0807934],[14.4039539,50.0807918],[14.4036993,50.0807778],[14.4031683,50.080752],[14.4019125,50.0807481],[14.4019146,50.0806615],[14.4019378,50.0806488],[14.4019478,50.0806246],[14.4019355,50.0806015],[14.4018919,50.0805895],[14.4018592,50.0805998],[14.4018442,50.080618],[14.4017466,50.0806075],[14.401656,50.0806193],[14.4016346,50.0805979],[14.4015916,50.080593],[14.4015477,50.0806144],[14.4015457,50.0806451],[14.4015789,50.0806616],[14.4015944,50.0806949],[14.4015892,50.0807449],[14.4007998,50.080652],[14.4006477,50.0806412],[14.4004554,50.0806387],[14.4002599,50.08065],[14.3998083,50.0807081],[14.3996679,50.0807271],[14.3996483,50.0806753],[14.399617,50.0805945],[14.3996724,50.0805821],[14.399667,50.0805589],[14.3988426,50.0806488],[14.3987376,50.0802487],[14.3975739,50.0799303],[14.3975615,50.0799477],[14.3975119,50.0800183],[14.397486,50.0800535],[14.3970625,50.0806456],[14.3971299,50.0807395],[14.3973408,50.0810197],[14.3957456,50.0814832],[14.3954917,50.0811124],[14.3954414,50.0811],[14.3954325,50.0810977],[14.3953829,50.0810847],[14.3943314,50.0808227],[14.3939088,50.0815633],[14.3941348,50.0819396],[14.3925141,50.0823517],[14.3922845,50.0819815],[14.391051,50.0817671],[14.3907161,50.08256],[14.3910231,50.0829052],[14.3895329,50.0834096],[14.3892476,50.0830497],[14.3880224,50.0829746],[14.3880067,50.0830038],[14.3878694,50.083789],[14.3878628,50.0837969],[14.3878833,50.0838024],[14.3881205,50.0839187],[14.3883611,50.084031],[14.3872407,50.0849968],[14.3867479,50.084749],[14.3855946,50.0851182],[14.3855564,50.0851304],[14.3855204,50.085106],[14.3855082,50.0850997],[14.3850865,50.0852915],[14.3848405,50.0853121],[14.3854453,50.0862143],[14.3855494,50.0863645],[14.3855693,50.0863683],[14.3872679,50.0867694],[14.3875944,50.086889],[14.3881041,50.0871506],[14.3882315,50.0872883],[14.388265,50.0875034],[14.3881953,50.0878037],[14.3880316,50.0886882],[14.3879673,50.0893361],[14.388603,50.0905864],[14.3887786,50.0910209],[14.3890952,50.0925283],[14.3894332,50.0927623],[14.3910518,50.0929473],[14.3921864,50.0930746],[14.3968535,50.0935891],[14.3983528,50.0933018],[14.3992326,50.0934257],[14.3999246,50.093553],[14.4038808,50.094126],[14.4044548,50.0942069],[14.4059273,50.094391],[14.4062278,50.0944598],[14.4072309,50.0946835],[14.4079631,50.0948366],[14.4086954,50.0949399],[14.409155,50.0950278],[14.4090727,50.0951548],[14.4094167,50.0951273],[14.4095048,50.0952415],[14.4096368,50.0954127],[14.4111073,50.0954232],[14.4109647,50.0946765],[14.4109505,50.0945633],[14.4109415,50.0944918],[14.4105498,50.0944129],[14.4108034,50.093944],[14.4108119,50.0939283],[14.4108995,50.0937663],[14.4109265,50.0937192],[14.4111459,50.0937654],[14.4112468,50.0937883],[14.4112984,50.0938],[14.4113879,50.0937384],[14.4119522,50.0933502],[14.4121417,50.0932175],[14.4120591,50.0931097],[14.4120039,50.0930254],[14.4119616,50.0929491],[14.4118358,50.0927662],[14.4117197,50.0926291],[14.411479,50.0923554],[14.4114298,50.0922183],[14.4123081,50.0927295],[14.4135103,50.0931672],[14.413915,50.0932376],[14.414446,50.09331],[14.4147699,50.093371],[14.4150416,50.0934438],[14.4164926,50.0938937],[14.417045,50.0930471],[14.4171151,50.0930619],[14.4171532,50.0930718],[14.4173332,50.093119],[14.41864,50.0934576],[14.4206,50.0938016],[14.4223956,50.0939974],[14.4245237,50.0941448],[14.4246249,50.0941518],[14.4267693,50.0942925]]]]}}